[{"OBJECT_NAME":"STARLINK-2579","OBJECT_ID":"2021-040AH","EPOCH":"2026-03-20T09:06:22.105728","MEAN_MOTION":15.30191734,"ECCENTRICITY":0.0001332,"INCLINATION":53.1601,"RA_OF_ASC_NODE":128.5086,"ARG_OF_PERICENTER":92.3161,"MEAN_ANOMALY":267.7992,"EPHEMERIS_TYPE":0,"CLASSIFICATION_TYPE":"U","NORAD_CAT_ID":48459,"ELEMENT_SET_NO":999,"REV_AT_EPOCH":26833,"BSTAR":3.9665e-5,"MEAN_MOTION_DOT":8.15e-6,"MEAN_MOTION_DDOT":0},{"OBJECT_NAME":"STARLINK-2582","OBJECT_ID":"2021-040AJ","EPOCH":"2026-03-20T11:33:56.479680","MEAN_MOTION":15.57574298,"ECCENTRICITY":0.0004875,"INCLINATION":53.0566,"RA_OF_ASC_NODE":78.1441,"ARG_OF_PERICENTER":45.4955,"MEAN_ANOMALY":314.6454,"EPHEMERIS_TYPE":0,"CLASSIFICATION_TYPE":"U","NORAD_CAT_ID":48460,"ELEMENT_SET_NO":999,"REV_AT_EPOCH":26955,"BSTAR":0.0015232,"MEAN_MOTION_DOT":0.001156,"MEAN_MOTION_DDOT":0},{"OBJECT_NAME":"STARLINK-2683","OBJECT_ID":"2021-040AL","EPOCH":"2026-03-20T09:46:36.626304","MEAN_MOTION":15.30191122,"ECCENTRICITY":0.0001273,"INCLINATION":53.1581,"RA_OF_ASC_NODE":141.2513,"ARG_OF_PERICENTER":99.2583,"MEAN_ANOMALY":260.8562,"EPHEMERIS_TYPE":0,"CLASSIFICATION_TYPE":"U","NORAD_CAT_ID":48462,"ELEMENT_SET_NO":999,"REV_AT_EPOCH":26814,"BSTAR":0.00035904,"MEAN_MOTION_DOT":0.00010286,"MEAN_MOTION_DDOT":0},{"OBJECT_NAME":"STARLINK-2686","OBJECT_ID":"2021-040AN","EPOCH":"2026-03-20T11:06:51.077952","MEAN_MOTION":15.2936501,"ECCENTRICITY":0.0001052,"INCLINATION":53.1544,"RA_OF_ASC_NODE":140.762,"ARG_OF_PERICENTER":90.195,"MEAN_ANOMALY":269.9171,"EPHEMERIS_TYPE":0,"CLASSIFICATION_TYPE":"U","NORAD_CAT_ID":48464,"ELEMENT_SET_NO":999,"REV_AT_EPOCH":26815,"BSTAR":0.0001236,"MEAN_MOTION_DOT":3.213e-5,"MEAN_MOTION_DDOT":0},{"OBJECT_NAME":"STARLINK-2681","OBJECT_ID":"2021-040AP","EPOCH":"2026-03-20T12:00:00.998784","MEAN_MOTION":15.35630155,"ECCENTRICITY":0.0001407,"INCLINATION":53.1539,"RA_OF_ASC_NODE":140.9771,"ARG_OF_PERICENTER":78.0398,"MEAN_ANOMALY":204.6094,"EPHEMERIS_TYPE":0,"CLASSIFICATION_TYPE":"U","NORAD_CAT_ID":48465,"ELEMENT_SET_NO":999,"REV_AT_EPOCH":582,"BSTAR":0.027719,"MEAN_MOTION_DOT":0.01062457,"MEAN_MOTION_DDOT":0},{"OBJECT_NAME":"STARLINK-2687","OBJECT_ID":"2021-040AQ","EPOCH":"2026-03-20T12:00:00.998784","MEAN_MOTION":15.30190192,"ECCENTRICITY":0.0001253,"INCLINATION":53.1589,"RA_OF_ASC_NODE":140.8942,"ARG_OF_PERICENTER":68.997,"MEAN_ANOMALY":348.7396,"EPHEMERIS_TYPE":0,"CLASSIFICATION_TYPE":"U","NORAD_CAT_ID":48466,"ELEMENT_SET_NO":999,"REV_AT_EPOCH":571,"BSTAR":0.00036464,"MEAN_MOTION_DOT":0.00010452,"MEAN_MOTION_DDOT":0},{"OBJECT_NAME":"STARLINK-2659","OBJECT_ID":"2021-040AR","EPOCH":"2026-03-20T10:33:37.726272","MEAN_MOTION":15.3022705,"ECCENTRICITY":0.0001251,"INCLINATION":53.1602,"RA_OF_ASC_NODE":141.0748,"ARG_OF_PERICENTER":91.3562,"MEAN_ANOMALY":268.7582,"EPHEMERIS_TYPE":0,"CLASSIFICATION_TYPE":"U","NORAD_CAT_ID":48467,"ELEMENT_SET_NO":999,"REV_AT_EPOCH":26815,"BSTAR":0.00046018,"MEAN_MOTION_DOT":0.00013306,"MEAN_MOTION_DDOT":0},{"OBJECT_NAME":"STARLINK-2685","OBJECT_ID":"2021-040AS","EPOCH":"2026-03-20T10:48:14.337216","MEAN_MOTION":15.29360009,"ECCENTRICITY":0.0001126,"INCLINATION":53.1574,"RA_OF_ASC_NODE":141.3101,"ARG_OF_PERICENTER":79.7775,"MEAN_ANOMALY":280.3352,"EPHEMERIS_TYPE":0,"CLASSIFICATION_TYPE":"U","NORAD_CAT_ID":48468,"ELEMENT_SET_NO":999,"REV_AT_EPOCH":26815,"BSTAR":3.181e-5,"MEAN_MOTION_DOT":5.62e-6,"MEAN_MOTION_DDOT":0},{"OBJECT_NAME":"STARLINK-2661","OBJECT_ID":"2021-040AT","EPOCH":"2026-03-20T10:37:38.010720","MEAN_MOTION":15.29365471,"ECCENTRICITY":0.0001273,"INCLINATION":53.1564,"RA_OF_ASC_NODE":141.126,"ARG_OF_PERICENTER":78.6568,"MEAN_ANOMALY":281.4576,"EPHEMERIS_TYPE":0,"CLASSIFICATION_TYPE":"U","NORAD_CAT_ID":48469,"ELEMENT_SET_NO":999,"REV_AT_EPOCH":26815,"BSTAR":0.00011337,"MEAN_MOTION_DOT":2.918e-5,"MEAN_MOTION_DDOT":0},{"OBJECT_NAME":"STARLINK-2675","OBJECT_ID":"2021-040AU","EPOCH":"2026-03-20T10:24:33.948000","MEAN_MOTION":15.30207164,"ECCENTRICITY":0.000127,"INCLINATION":53.1615,"RA_OF_ASC_NODE":141.134,"ARG_OF_PERICENTER":68.9371,"MEAN_ANOMALY":291.1765,"EPHEMERIS_TYPE":0,"CLASSIFICATION_TYPE":"U","NORAD_CAT_ID":48470,"ELEMENT_SET_NO":999,"REV_AT_EPOCH":26814,"BSTAR":0.00023894,"MEAN_MOTION_DOT":6.726e-5,"MEAN_MOTION_DDOT":0},{"OBJECT_NAME":"STARLINK-2684","OBJECT_ID":"2021-040AV","EPOCH":"2026-03-20T10:10:39.368928","MEAN_MOTION":15.2937983,"ECCENTRICITY":0.0001739,"INCLINATION":53.1566,"RA_OF_ASC_NODE":141.1329,"ARG_OF_PERICENTER":102.2803,"MEAN_ANOMALY":257.8392,"EPHEMERIS_TYPE":0,"CLASSIFICATION_TYPE":"U","NORAD_CAT_ID":48471,"ELEMENT_SET_NO":999,"REV_AT_EPOCH":26814,"BSTAR":0.00054573,"MEAN_MOTION_DOT":0.00015436,"MEAN_MOTION_DDOT":0},{"OBJECT_NAME":"STARLINK-2722","OBJECT_ID":"2021-040AW","EPOCH":"2026-03-20T13:05:56.883264","MEAN_MOTION":15.08627619,"ECCENTRICITY":0.0001063,"INCLINATION":53.0601,"RA_OF_ASC_NODE":142.6207,"ARG_OF_PERICENTER":51.7555,"MEAN_ANOMALY":308.3531,"EPHEMERIS_TYPE":0,"CLASSIFICATION_TYPE":"U","NORAD_CAT_ID":48472,"ELEMENT_SET_NO":999,"REV_AT_EPOCH":26812,"BSTAR":0.0010981,"MEAN_MOTION_DOT":0.00017132,"MEAN_MOTION_DDOT":0},{"OBJECT_NAME":"STARLINK-2658","OBJECT_ID":"2021-040AX","EPOCH":"2026-03-20T10:41:15.921024","MEAN_MOTION":15.30056085,"ECCENTRICITY":0.000152,"INCLINATION":53.161,"RA_OF_ASC_NODE":141.0678,"ARG_OF_PERICENTER":35.7474,"MEAN_ANOMALY":324.3628,"EPHEMERIS_TYPE":0,"CLASSIFICATION_TYPE":"U","NORAD_CAT_ID":48473,"ELEMENT_SET_NO":999,"REV_AT_EPOCH":26814,"BSTAR":0.0011116,"MEAN_MOTION_DOT":0.00032562,"MEAN_MOTION_DDOT":0},{"OBJECT_NAME":"STARLINK-2697","OBJECT_ID":"2021-040AY","EPOCH":"2026-03-20T13:04:08.524704","MEAN_MOTION":15.29355278,"ECCENTRICITY":0.000135,"INCLINATION":53.1564,"RA_OF_ASC_NODE":140.6182,"ARG_OF_PERICENTER":94.0495,"MEAN_ANOMALY":266.066,"EPHEMERIS_TYPE":0,"CLASSIFICATION_TYPE":"U","NORAD_CAT_ID":48474,"ELEMENT_SET_NO":999,"REV_AT_EPOCH":26815,"BSTAR":5.3763e-5,"MEAN_MOTION_DOT":1.196e-5,"MEAN_MOTION_DDOT":0},{"OBJECT_NAME":"STARLINK-2728","OBJECT_ID":"2021-040BC","EPOCH":"2026-03-20T10:44:37.986432","MEAN_MOTION":15.29362273,"ECCENTRICITY":0.0001371,"INCLINATION":53.1563,"RA_OF_ASC_NODE":140.9667,"ARG_OF_PERICENTER":89.509,"MEAN_ANOMALY":270.6068,"EPHEMERIS_TYPE":0,"CLASSIFICATION_TYPE":"U","NORAD_CAT_ID":48478,"ELEMENT_SET_NO":999,"REV_AT_EPOCH":26814,"BSTAR":-9.786e-7,"MEAN_MOTION_DOT":-3.84e-6,"MEAN_MOTION_DDOT":0},{"OBJECT_NAME":"STARLINK-2755","OBJECT_ID":"2021-040BD","EPOCH":"2026-03-20T10:19:22.120032","MEAN_MOTION":15.29367593,"ECCENTRICITY":5.35e-5,"INCLINATION":53.1558,"RA_OF_ASC_NODE":140.914,"ARG_OF_PERICENTER":84.1988,"MEAN_ANOMALY":275.9073,"EPHEMERIS_TYPE":0,"CLASSIFICATION_TYPE":"U","NORAD_CAT_ID":48479,"ELEMENT_SET_NO":999,"REV_AT_EPOCH":26814,"BSTAR":0.00034078,"MEAN_MOTION_DOT":9.494e-5,"MEAN_MOTION_DDOT":0},{"OBJECT_NAME":"STARLINK-2706","OBJECT_ID":"2021-040BF","EPOCH":"2026-03-20T09:08:00.899808","MEAN_MOTION":15.30201808,"ECCENTRICITY":0.0001132,"INCLINATION":53.1593,"RA_OF_ASC_NODE":143.8522,"ARG_OF_PERICENTER":66.1496,"MEAN_ANOMALY":293.9623,"EPHEMERIS_TYPE":0,"CLASSIFICATION_TYPE":"U","NORAD_CAT_ID":48481,"ELEMENT_SET_NO":999,"REV_AT_EPOCH":26810,"BSTAR":9.3876e-5,"MEAN_MOTION_DOT":2.422e-5,"MEAN_MOTION_DDOT":0}]
