STARLINK-2579           
1 48459U 21040AH  26079.37942252  .00000815  00000+0  39665-4 0  9991
2 48459  53.1601 128.5086 0001332  92.3161 267.7992 15.30191734268337
STARLINK-2582           
1 48460U 21040AJ  26079.48190370  .00115600  00000+0  15232-2 0  9992
2 48460  53.0566  78.1441 0004875  45.4955 314.6454 15.57574298269557
STARLINK-2683           
1 48462U 21040AL  26079.40736836  .00010286  00000+0  35904-3 0  9992
2 48462  53.1581 141.2513 0001273  99.2583 260.8562 15.30191122268140
STARLINK-2686           
1 48464U 21040AN  26079.46309118  .00003213  00000+0  12360-3 0  9992
2 48464  53.1544 140.7620 0001052  90.1950 269.9171 15.29365010268151
STARLINK-2681           
1 48465U 21040AP  26079.50001156  .01062457  00000+0  27719-1 0  9997
2 48465  53.1539 140.9771 0001407  78.0398 204.6094 15.35630155  5825
STARLINK-2687           
1 48466U 21040AQ  26079.50001156  .00010452  00000+0  36464-3 0  9994
2 48466  53.1589 140.8942 0001253  68.9970 348.7396 15.30190192  5713
STARLINK-2659           
1 48467U 21040AR  26079.44001998  .00013306  00000+0  46018-3 0  9999
2 48467  53.1602 141.0748 0001251  91.3562 268.7582 15.30227050268153
STARLINK-2685           
1 48468U 21040AS  26079.45016594  .00000562  00000+0  31810-4 0  9994
2 48468  53.1574 141.3101 0001126  79.7775 280.3352 15.29360009268150
STARLINK-2661           
1 48469U 21040AT  26079.44280105  .00002918  00000+0  11337-3 0  9993
2 48469  53.1564 141.1260 0001273  78.6568 281.4576 15.29365471268153
STARLINK-2675           
1 48470U 21040AU  26079.43372625  .00006726  00000+0  23894-3 0  9995
2 48470  53.1615 141.1340 0001270  68.9371 291.1765 15.30207164268145
STARLINK-2684           
1 48471U 21040AV  26079.42406677  .00015436  00000+0  54573-3 0  9996
2 48471  53.1566 141.1329 0001739 102.2803 257.8392 15.29379830268143
STARLINK-2722           
1 48472U 21040AW  26079.54579726  .00017132  00000+0  10981-2 0  9995
2 48472  53.0601 142.6207 0001063  51.7555 308.3531 15.08627619268129
STARLINK-2658           
1 48473U 21040AX  26079.44532316  .00032562  00000+0  11116-2 0  9994
2 48473  53.1610 141.0678 0001520  35.7474 324.3628 15.30056085268141
STARLINK-2697           
1 48474U 21040AY  26079.54454311  .00001196  00000+0  53763-4 0  9999
2 48474  53.1564 140.6182 0001350  94.0495 266.0660 15.29355278268150
STARLINK-2728           
1 48478U 21040BC  26079.44766188 -.00000384  00000+0 -97860-6 0  9998
2 48478  53.1563 140.9667 0001371  89.5090 270.6068 15.29362273268142
STARLINK-2755           
1 48479U 21040BD  26079.43011713  .00009494  00000+0  34078-3 0  9993
2 48479  53.1558 140.9140 0000535  84.1988 275.9073 15.29367593268145
STARLINK-2706           
1 48481U 21040BF  26079.38056597  .00002422  00000+0  93876-4 0  9995
2 48481  53.1593 143.8522 0001132  66.1496 293.9623 15.30201808268106
